GLOBALSTAR M067         
1 32263U 07048A   26022.97143521 -.00000051  00000+0  34258-3 0  9990
2 32263  51.9726 112.8169 0001830 104.4418  66.5343 12.40684097836768
GLOBALSTAR M070         
1 32264U 07048B   26022.88348609 -.00000088  00000+0  85840-4 0  9999
2 32264  51.9729 179.2114 0000808  98.2214  66.4605 12.62329692841416
GLOBALSTAR M066         
1 32265U 07048C   26022.56997976 -.00000085  00000+0  83340-4 0  9992
2 32265  51.9588 115.9378 0005615 101.8058 271.8243 12.30385290842307
GLOBALSTAR M068         
1 32266U 07048D   26022.94089579 -.00000047  00000+0  31422-3 0  9997
2 32266  51.9908 352.3650 0000708 270.3147 124.2658 12.62838672845321
GLOBALSTAR M079         
1 37188U 10054A   26022.93541979 -.00000110  00000+0 -37282-4 0  9995
2 37188  52.0014 190.8376 0001209  83.7266  81.6409 12.62270031704204
GLOBALSTAR M074         
1 37189U 10054B   26022.88268072 -.00000106  00000+0 -14769-4 0  9990
2 37189  51.9990 190.2871 0001175  99.7588  65.0780 12.62265600704806
GLOBALSTAR M076         
1 37190U 10054C   26022.90913345 -.00000088  00000+0  87789-4 0  9995
2 37190  52.0003 190.3978 0001301  95.3195  69.2096 12.62269893704524
GLOBALSTAR M077         
1 37191U 10054D   26022.69660446 -.00000060  00000+0  32053-3 0  9996
2 37191  51.9942 188.8157 0001717  91.8850 281.4413 11.68178015704145
